#dP2020 12  9  0  0  0.00000000      96 __u+U ITR00 FIT  IAC
## 2135 259200.00000000   900.00000000 59192 0.0000000000000
+  116   C01C02C03C04C05C06C07C08C09C10C11C12C13C14C16C19C20
+        C21C22C23C24C25C26C27C28C29C30C32C33C34C35C36C37C39
+        C40E01E02E03E04E05E07E08E09E11E12E13E14E15E18E19E21
+        E24E25E26E27E30E31E33E36G01G02G03G04G05G06G07G08G09
+        G10G11G12G13G14G15G16G17G18G19G20G21G22G23G24G25G26
+        G27G28G29G30G31G32J01J02J03J07R01R02R03R04R05R07R08
+        R09R11R12R13R14R15R16R17R18R19R20R21R22R24  0  0  0
++        13 13  0 13 13  8  8  8  8  8  8  8  9  8  8  9  8
++         8  9  8  8  8  8  8  8  8  8  8  8  8  9  8  8 10
++        11  4  5  5  6  5  5  5  6  5  5  4  5  5  4  5  5
++         4  5  4  5  5  4  5  6  3  4  4  4  4  4  4  3  4
++         3  4  4  3  4  4  4  4  3  4  3  4  4  3  4  4  3
++         3  4  4  3  4  4  8  8  8 14  6  5  6  6  6  6  6
++         5  8  6  6  5  6  6  6  5  7  6  6  7  6  0  0  0
%c M  cc GPS ccc cccc cccc cccc cccc ccccc ccccc ccccc ccccc
%c cc cc ccc ccc cccc cccc cccc cccc ccccc ccccc ccccc ccccc
%f  0.0000000  0.000000000  0.00000000000  0.000000000000000
%f  0.0000000  0.000000000  0.00000000000  0.000000000000000
%i    0    0    0    0      0      0      0      0         0
%i    0    0    0    0      0      0      0      0         0
/* INFORMATION & ANALYSIS CENTER (IAC)            RAPID DATA
/* S/V CLOCKS ARE ALIGNED TO GNSS TIME                      
/* G:C1WC2W R:C1PC2P E:C1XC5X C:C2IC6I J:C1CC2S             
/* PCV:IGS14_2134 OL/AL:FES2004  NONE     YN ORB:CoN CLK:CoN
*  2020 12 09  2 45  0.00000000
PC01 -34350.955533  24405.131345   -305.593664   -668.215271
PC02   4409.039313  41947.273690    967.116225    683.363566
PC03      0.000000      0.000000      0.000000 999999.999999
PC04 -39602.639190  14409.343744   -490.333591   -156.193201
PC05  21905.718486  36014.457409   1292.293509   -491.943707
PC06  -7507.357968  30336.433510  28926.656052     43.210759
PC07 -20866.361264  23679.833202 -27932.972367   -112.936473
PC08 -19850.151526  36892.034227   2583.508218   -773.899964
PC09   4949.066634  38538.124958  17128.638208    884.903954
PC10  -3962.390745  26347.149127 -32503.680608   -126.344837
PC11  16868.232887   9238.770996  20269.199126   -804.976361
PC12  12301.063579  24251.620936   6242.168576    655.269093
PC13 -10170.388544  37945.682838  15009.153313     44.734917
PC14  27254.609210   5812.812278    791.713696   -355.685316
PC16  -5110.069224  31310.239297  27948.425172   -626.738808
PC19 -26594.869628    873.034811   8444.387074    647.150588
PC20 -24278.547026 -10747.795191  -8622.665279   -914.132297
PC21   7269.280941  16484.931586  21314.725337   -747.826688
PC22 -13586.160179  12266.987569  21064.812590   -810.220172
PC23  17106.742863 -21914.014468   2493.381998   -897.593489
PC24  13747.241117   8828.048105 -22630.516026   -727.245078
PC25  21806.319923 -10412.675564 -13982.477947   -855.020269
PC26  -1113.103070  21226.293733 -18067.497526    934.418467
PC27  -6396.878780 -26970.111189   3150.652019    446.243766
PC28   6937.290023 -19841.826522  18367.581365   -136.275745
PC29 -16109.662632   1729.201375 -22722.384426    322.151359
PC30 -16488.520614 -18026.564550 -13469.446502    414.844789
PC32  -7381.264702 -16439.001033 -21302.493332   -882.011124
PC33  26608.174618   -952.241661  -8340.269751   -863.824420
PC34  16628.803659  17563.574166  13934.964534   -790.648594
PC35  -6463.171299  19906.877758 -18470.916203   -522.301128
PC36 -22007.860785   9597.934511  14242.339912   -810.396202
PC37   2356.856101 -21556.285464  17596.553874   -866.265315
PC39   -362.833850  33164.749838  26099.118538     26.096693
PC40 -12345.548682  20891.702808 -34482.451394 999999.999999
PE01 -14908.284806 -10699.485463  23229.061720   -999.470606
PE02  15041.374495  10609.787436 -23181.623594    182.259996
PE03  21296.063204  20110.077258   4215.393499   -373.914312
PE04 -25267.058830  -7204.744123  13629.307715   -664.137004
PE05   4771.563207  21417.826990  19859.473919   -322.822374
PE07  14383.174815 -10215.561559 -23770.474479   -472.188337
PE08  25197.305238   6867.220936 -13929.139762   6079.888575
PE09 -14140.339934  10272.174992  23886.457005   5838.897359
PE11 -13283.187051  20913.578251 -16202.914556   6676.569577
PE12 -16273.453025   -460.127096 -24713.889852   5466.605610
PE13  13299.906337 -20662.148714  16516.459954    408.016074
PE14 -13907.767281  15251.245577 -24576.714795  -1253.106748
PE15  16216.202043    291.874181  24774.036469    840.012407
PE18   2994.457515 -18440.927730  15839.307218  -1369.158399
PE19 -19928.987815 -20930.087474  -6394.988775    148.313691
PE21   5644.934438 -18566.574874  22357.499612   -636.254656
PE24 -23893.046419  15537.478531  -7945.641265   -625.551132
PE25  -5818.654309  18582.461313 -22280.459759   -521.857295
PE26   2313.848943 -29443.439390  -2057.619509   2404.137691
PE27  23516.920579 -15880.028538   8457.032108     76.215951
PE30  27335.561100  -3219.765744 -10918.572875   3359.798587
PE31 -27460.880556   3859.713858  10354.613550   -476.344603
PE33  -9582.019441 -21067.921637 -18441.710486   -463.932728
PE36  -2559.986392  29451.952318   1456.954103    470.345714
PG01  14129.835092 -20336.904424   8894.213459    798.251999
PG02 -15380.204776    380.816664 -20997.552209   -552.192651
PG03  18411.812615 -12950.195486 -14101.680460    -24.919097
PG04   9065.520967 -12807.470762 -21421.035735   -162.648160
PG05 -26215.721860   2071.563619  -4537.040075    -27.886482
PG06  -8559.922570 -15182.472541 -19967.808306     -3.547471
PG07   4801.867069 -25147.006501   6355.700006   -430.192006
PG08  15506.847659  -4286.182161  21194.957057     -2.208311
PG09  -2442.691799 -20800.213890 -16387.165851   -299.182824
PG10  11116.479814  12588.165098  20733.982011    -11.622564
PG11  12559.152203 -14060.815801  18382.721881    -86.538631
PG12 -21353.649467  10270.930941 -12076.621146     29.491298
PG13 -18505.888257  -6257.285031  17913.339749     73.080428
PG14  -7906.037798 -13975.256012  21152.756696     58.260140
PG15 -14976.147623   6890.852316  20527.751306   -184.564556
PG16  26469.008912    918.132043  -4380.112856   -247.709196
PG17 -14603.009085 -22146.556190   1931.249474    364.569155
PG18  -4074.149900  24987.095194   7930.367218    330.558096
PG19 -17594.954885 -19070.956436  -6146.146435    -67.787600
PG20  -1738.366022  16485.495041  20636.573096    525.689920
PG21  16270.564410 -13244.020733  16795.514047     75.865700
PG22  23423.417037 -10745.883706  -5878.393481   -718.169908
PG23   -952.079049  15467.149631  21538.313447    108.461618
PG24 -14899.815393  17674.178619  12495.064050      5.402216
PG25  -9007.363532  15468.810670 -19777.393681     36.418472
PG26  21260.742581   6468.583606 -14771.706094     11.493070
PG27  20184.397307   8222.514376  15272.286167    -30.874333
PG28 -11323.804672 -13174.238653  20615.868142    645.541368
PG29   -221.402461  19865.279415 -17643.181914   -252.347820
PG30  -2812.812491 -21833.921814  14751.897121   -349.195509
PG31  10606.819138  12747.657248 -20714.110138    -86.437787
PG32  16303.253425  21035.632217   1450.163041      6.746388
PJ01 -29221.983530  20984.926309  27018.027213   -335.121474
PJ02 -35786.997391  21301.311931  -2170.124389      0.036543
PJ03 -19106.933088  25445.967976 -23070.222548     -4.104519
PJ07 -25356.350847  33679.010251     -0.825460      0.054395
PR01 -24020.502419  -5732.149266   6406.176334     71.780149
PR02 -11509.639349   6478.901597  21841.883196    457.815394
PR03   6581.071783  13295.119788  20799.797801     26.996732
PR04  20773.176257  12411.385500   8101.687421     64.877721
PR05  23331.574307   4755.193431  -9181.469293     62.566194
PR07  -7135.332336 -13361.684028 -20480.927042    -41.720872
PR08 -20777.183805 -12409.613259  -7980.828695    -56.152265
PR09  18249.223379 -17291.702926   4126.837191     12.045637
PR11  -5354.408232  -9617.824105  23039.649104     22.017807
PR12 -20244.242322   8030.983238  13285.433520    186.746177
PR13 -18413.272468  17248.808755  -3755.489063    -47.721687
PR14  -5671.661217  16134.472586 -18915.886116     58.563426
PR15  10134.329673   5759.158527 -22667.867899    106.423028
PR16  20393.883491  -9063.259940 -12496.453746     -8.956010
PR17   2300.508603  25234.723114  -2709.028635    380.799033
PR18   8891.293194  19612.602277  13731.851166     59.004391
PR19  10672.957884   4459.629542  22739.521262   -122.986857
PR20   6486.708964 -16302.925691  18512.421291   -428.409631
PR21  -2742.972115 -25326.504227   1621.863275   -171.830633
PR22  -9077.538321 -18712.041015 -14712.877706    -85.967146
PR24  -6358.650615  17052.374930 -17841.078265     23.401308
EOF
